NORAD_CAT_ID,OBJECT_NAME,OBJECT_TYPE,EPOCH,MEAN_MOTION,ECCENTRICITY,INCLINATION,RA_OF_ASC_NODE,ARG_OF_PERICENTER,MEAN_ANOMALY,BSTAR,MEAN_MOTION_DOT,MEAN_MOTION_DDOT,TLE_LINE0,TLE_LINE1,TLE_LINE2,SEMIMAJOR_AXIS,PERIOD,APOGEE,PERIGEE,DECAYED
52103.0,STARLINK-3705,PAYLOAD,2024-04-01 18:57:01,15.08842305,0.000152,53.2196,12.5215,64.239,295.8759,0.00023763,3.496e-05,0.0,0 STARLINK-3705,1 52103U 22029R   24092.78960464  .00003496  00000-0  23763-3 0  9993,2 52103  53.2196  12.5215 0001520  64.2390 295.8759 15.08842305114060,6917.873,95.437,540.79,538.687,0.0
52103.0,STARLINK-3705,PAYLOAD,2024-04-02 04:29:20,15.08843193,0.0001376,53.2197,10.7345,77.6138,282.5008,0.00016593,2.354e-05,0.0,0 STARLINK-3705,1 52103U 22029R   24093.18704269  .00002354  00000-0  16593-3 0  9992,2 52103  53.2197  10.7345 0001376  77.6138 282.5008 15.08843193114125,6917.871,95.437,540.688,538.784,0.0
52103.0,STARLINK-3705,PAYLOAD,2024-04-02 17:12:25,15.08836691,0.0001253,53.2188,8.3549,110.6693,249.4433,2.85e-05,1.66e-06,0.0,0 STARLINK-3705,1 52103U 22029R   24093.71696424  .00000166  00000-0  28500-4 0  9995,2 52103  53.2188   8.3549 0001253 110.6693 249.4433 15.08836691114200,6917.891,95.438,540.622,538.889,0.0
52103.0,STARLINK-3705,PAYLOAD,2024-04-03 10:41:40,15.08837617,0.0001329,53.2192,5.0839,91.7007,268.4137,6.6298e-05,7.67e-06,0.0,0 STARLINK-3705,1 52103U 22029R   24094.44560797  .00000767  00000-0  66298-4 0  9992,2 52103  53.2192   5.0839 0001329  91.7007 268.4137 15.08837617114316,6917.888,95.438,540.672,538.833,0.0
52103.0,STARLINK-3705,PAYLOAD,2024-04-03 18:38:36,15.08831237,0.0001666,53.2208,3.599,113.8495,246.2672,4.9611e-05,5.01e-06,0.0,0 STARLINK-3705,1 52103U 22029R   24094.77681328  .00000501  00000-0  49611-4 0  9998,2 52103  53.2208   3.5990 0001666 113.8495 246.2672 15.08831237114361,6917.907,95.438,540.925,538.62,0.0
52103.0,STARLINK-3705,PAYLOAD,2024-04-04 10:32:27,15.08838444,0.0001404,53.2197,0.6253,99.7005,260.4146,4.668e-05,4.55e-06,0.0,0 STARLINK-3705,1 52103U 22029R   24095.43921116  .00000455  00000-0  46680-4 0  9995,2 52103  53.2197   0.6253 0001404  99.7005 260.4146 15.08838444114469,6917.885,95.438,540.721,538.779,0.0
52103.0,STARLINK-3705,PAYLOAD,2024-04-04 21:40:09,15.08842193,0.0001312,53.2189,358.5429,88.4788,271.6354,0.0001456,2.03e-05,0.0,0 STARLINK-3705,1 52103U 22029R   24095.90288827  .00002030  00000-0  14560-3 0  9994,2 52103  53.2189 358.5429 0001312  88.4788 271.6354 15.08842193114530,6917.874,95.437,540.646,538.831,0.0
52103.0,STARLINK-3705,PAYLOAD,2024-04-05 04:01:41,15.08847749,0.0001445,53.2194,357.3534,99.2865,260.829,0.00021898,3.2e-05,0.0,0 STARLINK-3705,1 52103U 22029R   24096.16784350  .00003200  00000-0  21898-3 0  9997,2 52103  53.2194 357.3534 0001445  99.2865 260.8290 15.08847749114578,6917.857,95.437,540.721,538.722,0.0
52103.0,STARLINK-3705,PAYLOAD,2024-04-05 10:23:14,15.0884078,0.0001689,53.2186,356.1642,87.1979,272.9207,0.00011445,1.534e-05,0.0,0 STARLINK-3705,1 52103U 22029R   24096.43281128  .00001534  00000-0  11445-3 0  9997,2 52103  53.2186 356.1642 0001689  87.1979 272.9207 15.08840780114613,6917.878,95.438,540.911,538.575,0.0
52103.0,STARLINK-3705,PAYLOAD,2024-04-05 21:30:56,15.08840793,0.0001662,53.2182,354.0813,82.9163,277.2018,0.00015223,2.136e-05,0.0,0 STARLINK-3705,1 52103U 22029R   24096.89648922  .00002136  00000-0  15223-3 0  9993,2 52103  53.2182 354.0813 0001662  82.9163 277.2018 15.08840793114684,6917.878,95.438,540.893,538.593,0.0
52103.0,STARLINK-3705,PAYLOAD,2024-04-06 10:14:01,15.08840561,0.000145,53.2194,351.7023,94.1287,265.9871,8.402e-05,1.049e-05,0.0,0 STARLINK-3705,1 52103U 22029R   24097.42641107  .00001049  00000-0  84020-4 0  9995,2 52103  53.2194 351.7023 0001450  94.1287 265.9871 15.08840561114764,6917.879,95.438,540.747,538.741,0.0
52103.0,STARLINK-3705,PAYLOAD,2024-04-06 22:57:06,15.08841636,0.0001466,53.2189,349.3239,95.459,264.6569,-6.6681e-05,-1.349e-05,0.0,0 STARLINK-3705,1 52103U 22029R   24097.95632801 -.00001349  00000-0 -66681-4 0  9992,2 52103  53.2189 349.3239 0001466  95.4590 264.6569 15.08841636114841,6917.875,95.437,540.755,538.726,0.0
52103.0,STARLINK-3705,PAYLOAD,2024-04-07 10:04:48,15.08837425,0.0001376,53.2192,347.2413,97.3028,262.812,-5.7737e-05,-1.207e-05,0.0,0 STARLINK-3705,1 52103U 22029R   24098.42001038 -.00001207  00000-0 -57737-4 0  9992,2 52103  53.2192 347.2413 0001376  97.3028 262.8120 15.08837425114915,6917.888,95.438,540.705,538.801,0.0
52103.0,STARLINK-3705,PAYLOAD,2024-04-07 21:12:31,15.0883769,0.0001451,53.2202,345.1593,91.9292,268.1867,3.0377e-05,1.96e-06,0.0,0 STARLINK-3705,1 52103U 22029R   24098.88369371  .00000196  00000-0  30377-4 0  9994,2 52103  53.2202 345.1593 0001451  91.9292 268.1867 15.08837690114988,6917.887,95.438,540.756,538.749,0.0
52103.0,STARLINK-3705,PAYLOAD,2024-04-07 22:47:54,15.08837146,0.0001322,53.2198,344.8619,93.1815,266.9329,3.6645e-05,2.95e-06,0.0,0 STARLINK-3705,1 52103U 22029R   24098.94993348  .00000295  00000-0  36645-4 0  9992,2 52103  53.2198 344.8619 0001322  93.1815 266.9329 15.08837146114995,6917.889,95.438,540.669,538.84,0.0
52103.0,STARLINK-3705,PAYLOAD,2024-04-08 01:58:41,15.08826585,0.0001266,53.2198,344.2703,88.6945,271.4192,-0.00015619,-2.772e-05,0.0,0 STARLINK-3705,1 52103U 22029R   24099.08242582 -.00002772  00000-0 -15619-3 0  9996,2 52103  53.2198 344.2703 0001266  88.6945 271.4192 15.08826585115011,6917.921,95.438,540.662,538.911,0.0
52103.0,STARLINK-3705,PAYLOAD,2024-04-08 09:55:37,15.0883145,0.0001359,53.2203,342.7848,81.496,278.6186,-0.00013738,-2.473e-05,0.0,0 STARLINK-3705,1 52103U 22029R   24099.41362484 -.00002473  00000-0 -13738-3 0  9995,2 52103  53.2203 342.7848 0001359  81.4960 278.6186 15.08831450115066,6917.907,95.438,540.712,538.831,0.0
52103.0,STARLINK-3705,PAYLOAD,2024-04-08 22:38:42,15.08828128,9.51e-05,53.2204,340.4053,78.5255,281.5844,2.7617e-05,1.52e-06,0.0,0 STARLINK-3705,1 52103U 22029R   24099.94354655  .00000152  00000-0  27617-4 0  9996,2 52103  53.2204 340.4053 0000951  78.5255 281.5844 15.08828128115142,6917.917,95.438,540.44,539.124,0.0
52103.0,STARLINK-3705,PAYLOAD,2024-04-09 01:49:28,15.08838109,0.000144,53.2194,339.8089,88.6662,271.4495,6.2818e-05,7.12e-06,0.0,0 STARLINK-3705,1 52103U 22029R   24100.07602063  .00000712  00000-0  62818-4 0  9996,2 52103  53.2194 339.8089 0001440  88.6662 271.4495 15.08838109115161,6917.886,95.438,540.747,538.755,0.0
52103.0,STARLINK-3705,PAYLOAD,2024-04-09 22:29:27,15.08853277,0.0001305,53.2186,335.943,84.6957,275.4184,0.00015845,2.236e-05,0.0,0 STARLINK-3705,1 52103U 22029R   24100.93712790  .00002236  00000-0  15845-3 0  9990,2 52103  53.2186 335.9430 0001305  84.6957 275.4184 15.08853277115298,6917.84,95.437,540.608,538.802,0.0
52103.0,STARLINK-3705,PAYLOAD,2024-04-10 08:01:47,15.08835744,0.0001464,53.2173,334.1604,88.4098,271.7062,0.00047454,7.272e-05,0.0,0 STARLINK-3705,1 52103U 22029R   24101.33458316  .00007272  00000-0  47454-3 0  9992,2 52103  53.2173 334.1604 0001464  88.4098 271.7062 15.08835744115352,6917.893,95.438,540.771,538.746,0.0
52103.0,STARLINK-3705,PAYLOAD,2024-04-10 14:23:20,15.08842009,0.000168,53.2169,332.9722,85.1112,275.0072,0.00016222,2.295e-05,0.0,0 STARLINK-3705,1 52103U 22029R   24101.59953857  .00002295  00000-0  16222-3 0  9999,2 52103  53.2169 332.9722 0001680  85.1112 275.0072 15.08842009115399,6917.874,95.437,540.901,538.577,0.0
52103.0,STARLINK-3705,PAYLOAD,2024-04-10 20:44:53,15.08808995,0.0001479,53.219,331.7828,89.9753,270.1408,0.00047418,7.26e-05,0.0,0 STARLINK-3705,1 52103U 22029R   24101.86451183  .00007260  00000-0  47418-3 0  9992,2 52103  53.2190 331.7828 0001479  89.9753 270.1408 15.08808995115436,6917.975,95.44,540.863,538.817,0.0
52103.0,STARLINK-3705,PAYLOAD,2024-04-10 22:20:15,15.08841059,0.0001446,53.2184,331.4846,94.4604,265.6553,9.0717e-05,1.156e-05,0.0,0 STARLINK-3705,1 52103U 22029R   24101.93073805  .00001156  00000-0  90717-4 0  9990,2 52103  53.2184 331.4846 0001446  94.4604 265.6553 15.08841059115445,6917.877,95.437,540.742,538.742,0.0
52103.0,STARLINK-3705,PAYLOAD,2024-04-11 07:52:34,15.08840983,0.0001359,53.2184,329.7006,92.4003,267.7144,-3.0253e-05,-7.69e-06,0.0,0 STARLINK-3705,1 52103U 22029R   24102.32818049 -.00000769  00000-0 -30253-4 0  9991,2 52103  53.2184 329.7006 0001359  92.4003 267.7144 15.08840983115508,6917.877,95.437,540.683,538.802,0.0
52103.0,STARLINK-3705,PAYLOAD,2024-04-11 20:35:40,15.08840629,0.0001484,53.2194,327.3234,101.9094,258.2065,-0.00019048,-3.318e-05,0.0,0 STARLINK-3705,1 52103U 22029R   24102.85810742 -.00003318  00000-0 -19048-3 0  9992,2 52103  53.2194 327.3234 0001484 101.9094 258.2065 15.08840629115583,6917.878,95.438,540.77,538.717,0.0
52103.0,STARLINK-3705,PAYLOAD,2024-04-11 22:11:03,15.08843422,0.0001462,53.2195,327.026,102.1353,257.9803,-0.00022948,-3.939e-05,0.0,0 STARLINK-3705,1 52103U 22029R   24102.92434698 -.00003939  00000-0 -22948-3 0  9994,2 52103  53.2195 327.0260 0001462 102.1353 257.9803 15.08843422115598,6917.87,95.437,540.746,538.724,0.0
52103.0,STARLINK-3705,PAYLOAD,2024-04-12 01:21:49,15.08831982,0.0001469,53.2192,326.4299,94.6012,265.5148,-3.3429e-05,-8.2e-06,0.0,0 STARLINK-3705,1 52103U 22029R   24103.05682760 -.00000820  00000-0 -33429-4 0  9997,2 52103  53.2192 326.4299 0001469  94.6012 265.5148 15.08831982115612,6917.905,95.438,540.786,538.754,0.0
52103.0,STARLINK-3705,PAYLOAD,2024-04-12 22:01:49,15.08843214,0.0001291,53.2185,322.5627,95.5898,264.5241,7.1283e-05,8.47e-06,0.0,0 STARLINK-3705,1 52103U 22029R   24103.91793844  .00000847  00000-0  71283-4 0  9995,2 52103  53.2185 322.5627 0001291  95.5898 264.5241 15.08843214115749,6917.871,95.437,540.629,538.842,0.0
52103.0,STARLINK-3705,PAYLOAD,2024-04-12 23:37:12,15.08844374,0.0001303,53.2184,322.2655,97.4154,262.6987,8.4512e-05,1.058e-05,0.0,0 STARLINK-3705,1 52103U 22029R   24103.98417746  .00001058  00000-0  84512-4 0  9990,2 52103  53.2184 322.2655 0001303  97.4154 262.6987 15.08844374115751,6917.867,95.437,540.633,538.831,0.0
